     2.100          NAVIGATION                              RINEX VERSION / TYPE
fic2rin                                 05/11/2012 00:10:18 PGM / RUN BY / DATE
                                                            END OF HEADER
29 12  5 10 23 59 44.0  .311789102852D-03  .386535248253D-11  .000000000000D+00
     .230000000000D+02 -.505000000000D+02  .436482466961D-08 -.159560730624D+01
    -.270083546638D-05  .230226072017D-02  .111218541861D-04  .515359022522D+04
     .431984000000D+06 -.968575477600D-07 -.185899155999D+01  .391155481339D-07
     .963134554260D+00  .162437500000D+03 -.114795384148D+01 -.789354308347D-08
     .179650340301D-09  .100000000000D+01  .168700000000D+04  .000000000000D+00
     .240000000000D+01  .000000000000D+00 -.931322574615D-08  .230000000000D+02
     .424806000000D+06  .400000000000D+01
 1 12  5 11  0  0  0.0  .255761668086D-03  .238742359215D-11  .000000000000D+00
     .690000000000D+02  .130312500000D+02  .470733893670D-08 -.487526508305D+00
     .540167093277D-06  .668279943056D-03  .739842653275D-05  .515364869881D+04
     .432000000000D+06  .931322574615D-08 -.859664838160D+00 -.558793544769D-08
     .959915338658D+00  .236812500000D+03  .331852156780D+00 -.809712299196D-08
     .775032283206D-10  .100000000000D+01  .168700000000D+04  .000000000000D+00
     .240000000000D+01  .000000000000D+00  .838190317154D-08  .690000000000D+02
     .424806000000D+06  .400000000000D+01
 2 12  5 11  0  0  0.0  .389775726944D-03  .136424205266D-11  .000000000000D+00
     .220000000000D+02  .212187500000D+02  .537558105739D-08  .514795874766D+00
     .119209289551D-05  .112094586948D-01  .653788447380D-05  .515368267441D+04
     .432000000000D+06  .117346644402D-06 -.873031232455D+00  .264495611191D-06
     .938459259006D+00  .242031250000D+03 -.279325410202D+01 -.852606943073D-08
     .975040614355D-10  .100000000000D+01  .168700000000D+04  .000000000000D+00
     .240000000000D+01  .000000000000D+00 -.172294676304D-07  .220000000000D+02
     .424806000000D+06  .400000000000D+01
 3 12  5 11  0  0  0.0  .472180545330D-04  .500222085975D-11  .000000000000D+00
     .560000000000D+02 -.595000000000D+02  .528843457024D-08  .683928187554D+00
    -.286102294922D-05  .152227639919D-01  .999495387077D-05  .515371818352D+04
     .432000000000D+06 -.189989805222D-06 -.203707168101D+01  .614672899246D-07
     .930968448424D+00  .176406250000D+03  .118581603098D+01 -.858250035273D-08
     .892894335490D-11  .100000000000D+01  .168700000000D+04  .000000000000D+00
     .240000000000D+01  .000000000000D+00 -.465661287308D-08  .560000000000D+02
     .424806000000D+06  .400000000000D+01
 4 12  5 11  0  0  0.0  .179567374289D-03  .115960574476D-10  .000000000000D+00
     .290000000000D+02  .229687500000D+02  .524057543386D-08 -.260380355556D+01
     .113621354103D-05  .998165528290D-02  .678189098835D-05  .515359182358D+04
     .432000000000D+06  .763684511185D-07 -.856105890555D+00 -.670552253723D-07
     .937528448120D+00  .236468750000D+03  .851410583297D+00 -.823570019283D-08
     .199294015681D-09  .100000000000D+01  .168700000000D+04  .000000000000D+00
     .240000000000D+01  .000000000000D+00 -.605359673500D-08  .290000000000D+02
     .424806000000D+06  .400000000000D+01
 5 12  5 11  0  0  0.0 -.313957687467D-03 -.386535248253D-11  .000000000000D+00
     .600000000000D+02  .375000000000D+01  .480698594455D-08  .255915631689D+01
     .182539224625D-06  .267572095618D-02  .801123678684D-05  .515365288162D+04
     .432000000000D+06 -.931322574615D-08  .190021214712D+00  .186264514923D-07
     .951521923713D+00  .221093750000D+03  .250158731155D+00 -.811676666734D-08
    -.380730144653D-09  .100000000000D+01  .168700000000D+04  .000000000000D+00
     .240000000000D+01  .000000000000D+00 -.102445483208D-07  .600000000000D+02
     .424806000000D+06  .400000000000D+01
 6 12  5 11  0  0  0.0  .268789008260D-04 -.227373675443D-11  .000000000000D+00
     .680000000000D+02 -.613750000000D+02  .495556356197D-08  .258310663969D+01
    -.294856727123D-05  .731902883854D-02  .102911144495D-04  .515369775009D+04
     .432000000000D+06  .316649675369D-07 -.196056881747D+01  .199303030968D-06
     .937807505595D+00  .167750000000D+03 -.554021664838D+00 -.813069581897D-08
     .133219834855D-09  .100000000000D+01  .168700000000D+04  .000000000000D+00
     .240000000000D+01  .000000000000D+00 -.512227416039D-08  .680000000000D+02
     .424806000000D+06  .400000000000D+01
 7 12  5 11  0  0  0.0  .801044516265D-04  .341060513165D-11  .000000000000D+00
     .950000000000D+02  .329375000000D+02  .432660879205D-08 -.879840807438D+00
     .172294676304D-05  .532028882299D-02  .389665365219D-05  .515361185074D+04
     .432000000000D+06  .502914190292D-07  .230120502343D+01 -.745058059692D-08
     .975706600131D+00  .309750000000D+03 -.303105558025D+01 -.819998441941D-08
     .237152735506D-09  .100000000000D+01  .168700000000D+04  .000000000000D+00
     .240000000000D+01  .000000000000D+00 -.107102096081D-07  .950000000000D+02
     .424806000000D+06  .400000000000D+01
 8 12  5 11  0  0  0.0  .118417665362D-05  .000000000000D+00  .000000000000D+00
     .310000000000D+02  .256562500000D+02  .387837583564D-08 -.155765071463D+01
     .110454857349D-05  .122136423597D-01  .382028520107D-05  .515368338394D+04
     .432000000000D+06  .856816768646D-07  .238418723307D+01 -.102445483208D-06
     .997909053272D+00  .323875000000D+03 -.297195672979D+01 -.793711632704D-08
     .325013538118D-09  .100000000000D+01  .168700000000D+04  .000000000000D+00
     .240000000000D+01  .000000000000D+00 -.372529029846D-08  .310000000000D+02
     .424806000000D+06  .400000000000D+01
 9 12  5 11  0  0  0.0  .157331582159D-03  .250111042988D-11  .000000000000D+00
     .100000000000D+02  .510937500000D+02  .418338854064D-08 -.157987506766D+01
     .313110649586D-05  .174905767199D-01  .344775617123D-05  .515362487411D+04
     .432000000000D+06  .670552253723D-07  .227534331478D+01  .374391674995D-06
     .984439327221D+00  .328750000000D+03  .161358548102D+01 -.813319592311D-08
     .231438211759D-09  .100000000000D+01  .168700000000D+04  .000000000000D+00
     .240000000000D+01  .000000000000D+00 -.558793544769D-08  .100000000000D+02
     .424806000000D+06  .400000000000D+01
10 12  5 11  0  0  0.0 -.378689728677D-04 -.102318153949D-11  .000000000000D+00
     .240000000000D+02  .318750000000D+01  .477269880206D-08  .285998286901D+01
     .875443220139D-07  .112720195903D-01  .790506601334D-05  .515369644547D+04
     .432000000000D+06 -.279396772385D-07  .211672174070D+00 -.143423676491D-06
     .946406274740D+00  .219250000000D+03  .750177695272D+00 -.802247702551D-08
    -.332871008271D-09  .100000000000D+01  .168700000000D+04  .000000000000D+00
     .240000000000D+01  .000000000000D+00 -.232830643654D-08  .240000000000D+02
     .424806000000D+06  .400000000000D+01
12 12  5 11  0  0  0.0  .682678073645D-04  .204636307899D-11  .000000000000D+00
     .210000000000D+02 -.985625000000D+02  .431839416416D-08 -.110232675492D+01
    -.506266951561D-05  .410745968111D-02  .589340925217D-05  .515380443382D+04
     .432000000000D+06  .223517417908D-07 -.292596005307D+01  .186264514923D-08
     .979906052769D+00  .277125000000D+03  .303830486159D-01 -.810069456930D-08
    -.835749098019D-10  .100000000000D+01  .168700000000D+04  .000000000000D+00
     .240000000000D+01  .000000000000D+00 -.121071934700D-07  .210000000000D+02
     .424806000000D+06  .400000000000D+01
13 12  5 11  0  0  0.0  .208187382668D-03 -.238742359215D-11  .000000000000D+00
     .910000000000D+02  .678437500000D+02  .374015579250D-08  .140159926818D+01
     .353157520294D-05  .498582283035D-02  .882707536221D-05  .515367813873D+04
     .432000000000D+06  .931322574615D-07  .133024352683D+01 -.782310962677D-07
     .985813990378D+00  .221781250000D+03  .198482307612D+01 -.771746432051D-08
     .714315468392D-10  .100000000000D+01  .168700000000D+04  .000000000000D+00
     .240000000000D+01  .000000000000D+00 -.111758708954D-07  .910000000000D+02
     .424806000000D+06  .400000000000D+01
14 12  5 11  0  0  0.0  .202429480851D-03  .102318153949D-11  .000000000000D+00
     .690000000000D+02  .821562500000D+02  .390516266570D-08  .154966398506D+01
     .431388616562D-05  .626825192012D-02  .979378819466D-05  .515359313011D+04
     .432000000000D+06 -.180676579475D-06  .130364864899D+01 -.577419996262D-07
     .978675116924D+00  .195781250000D+03 -.206614606748D+01 -.785782731005D-08
     .207151485834D-10  .100000000000D+01  .168700000000D+04  .000000000000D+00
     .240000000000D+01  .000000000000D+00 -.884756445885D-08  .690000000000D+02
     .424806000000D+06  .400000000000D+01
15 12  5 11  0  0  0.0 -.913362018764D-04  .000000000000D+00  .000000000000D+00
     .103000000000D+03  .769687500000D+02  .461769234542D-08  .106388797527D+01
     .399723649025D-05  .438575807493D-02  .935420393944D-05  .515356143188D+04
     .432000000000D+06  .298023223877D-07  .121635114847D+01  .558793544769D-07
     .945572881032D+00  .190531250000D+03  .537809120994D-01 -.812033824468D-08
    -.896465912832D-10  .100000000000D+01  .168700000000D+04  .000000000000D+00
     .240000000000D+01  .000000000000D+00 -.102445483208D-07  .103000000000D+03
     .424806000000D+06  .400000000000D+01
16 12  5 11  0  0  0.0 -.234429258853D-03 -.125055521494D-11  .000000000000D+00
     .490000000000D+02 -.917187500000D+02  .422696178421D-08  .285112133637D+01
    -.469759106636D-05  .663073535543D-02  .576488673687D-05  .515367037392D+04
     .432000000000D+06 -.726431608200D-07 -.290782596925D+01  .465661287308D-07
     .980745219152D+00  .281375000000D+03 -.278196372453D-01 -.793854495798D-08
    -.121433629627D-09  .100000000000D+01  .168700000000D+04  .000000000000D+00
     .240000000000D+01  .000000000000D+00 -.977888703346D-08  .490000000000D+02
     .424806000000D+06  .400000000000D+01
